NORAD_CAT_ID,OBJECT_NAME,OBJECT_TYPE,EPOCH,MEAN_MOTION,ECCENTRICITY,INCLINATION,RA_OF_ASC_NODE,ARG_OF_PERICENTER,MEAN_ANOMALY,BSTAR,MEAN_MOTION_DOT,MEAN_MOTION_DDOT,TLE_LINE0,TLE_LINE1,TLE_LINE2,SEMIMAJOR_AXIS,PERIOD,APOGEE,PERIGEE,DECAYED
52703.0,STARLINK-4020,PAYLOAD,2024-04-06 03:10:45,15.08837845,0.0001286,53.2184,48.0321,100.5108,259.6029,-3.3508e-05,-8.21e-06,0.0,0 STARLINK-4020,1 52703U 22053AZ  24097.13246891 -.00000821  00000-0 -33508-4 0  9991,2 52703  53.2184  48.0321 0001286 100.5108 259.6029 15.08837845104829,6917.887,95.438,540.642,538.862,0.0
52703.0,STARLINK-4020,PAYLOAD,2024-04-06 20:39:59,15.08838998,0.0001407,53.2181,44.7602,101.724,258.391,6.4064e-05,7.32e-06,0.0,0 STARLINK-4020,1 52703U 22053AZ  24097.86110916  .00000732  00000-0  64064-4 0  9999,2 52703  53.2181  44.7602 0001407 101.7240 258.3910 15.08838998104089,6917.883,95.438,540.722,538.775,0.0
52703.0,STARLINK-4020,PAYLOAD,2024-04-07 06:12:18,15.0883696,0.0001431,53.2184,42.9761,102.972,257.1432,-1.0971e-05,-4.63e-06,0.0,0 STARLINK-4020,1 52703U 22053AZ  24098.25855126 -.00000463  00000-0 -10971-4 0  9993,2 52703  53.2184  42.9761 0001431 102.9720 257.1432 15.08836960104994,6917.89,95.438,540.745,538.765,0.0
52703.0,STARLINK-4020,PAYLOAD,2024-04-08 12:24:37,15.08853366,0.000131,53.22,37.3303,92.0295,268.0847,0.00010364,1.362e-05,0.0,0 STARLINK-4020,1 52703U 22053AZ  24099.51710267  .00001362  00000-0  10364-3 0  9991,2 52703  53.2200  37.3303 0001310  92.0295 268.0847 15.08853366105187,6917.84,95.437,540.611,538.798,0.0
52703.0,STARLINK-4020,PAYLOAD,2024-04-08 23:32:20,15.08838065,0.000179,53.221,35.2502,103.4567,256.6624,0.00012361,1.68e-05,0.0,0 STARLINK-4020,1 52703U 22053AZ  24099.98079457  .00001680  00000-0  12361-3 0  9993,2 52703  53.2210  35.2502 0001790 103.4567 256.6624 15.08838065104406,6917.886,95.438,540.99,538.513,0.0
52703.0,STARLINK-4020,PAYLOAD,2024-04-09 02:43:06,15.08835599,0.0001637,53.2212,34.6567,104.8991,255.2183,0.00012552,1.71e-05,0.0,0 STARLINK-4020,1 52703U 22053AZ  24100.11327511  .00001710  00000-0  12552-3 0  9994,2 52703  53.2212  34.6567 0001637 104.8991 255.2183 15.08835599105278,6917.894,95.438,540.891,538.626,0.0
52703.0,STARLINK-4020,PAYLOAD,2024-04-09 12:15:25,15.08845006,0.0001682,53.2221,32.8717,96.1773,263.9411,0.00013649,1.885e-05,0.0,0 STARLINK-4020,1 52703U 22053AZ  24100.51070914  .00001885  00000-0  13649-3 0  9991,2 52703  53.2221  32.8717 0001682  96.1773 263.9411 15.08845006105337,6917.865,95.437,540.894,538.567,0.0
52703.0,STARLINK-4020,PAYLOAD,2024-04-10 04:09:17,15.08836926,0.0001396,53.2203,29.8963,90.4458,269.6694,2.0691e-05,4.1e-07,0.0,0 STARLINK-4020,1 52703U 22053AZ  24101.17311694  .00000041  00000-0  20691-4 0  9996,2 52703  53.2203  29.8963 0001396  90.4458 269.6694 15.08836926105433,6917.89,95.438,540.721,538.789,0.0
52703.0,STARLINK-4020,PAYLOAD,2024-04-10 12:06:12,15.08840226,0.0001625,53.2221,28.4118,94.9725,265.1453,5.7731e-05,6.31e-06,0.0,0 STARLINK-4020,1 52703U 22053AZ  24101.50431475  .00000631  00000-0  57731-4 0  9993,2 52703  53.2221  28.4118 0001625  94.9725 265.1453 15.08840226104634,6917.88,95.438,540.869,538.621,0.0
52703.0,STARLINK-4020,PAYLOAD,2024-04-10 23:13:55,15.08827708,0.0001636,53.2221,26.3287,97.2424,262.8754,-1.3487e-05,-5.03e-06,0.0,0 STARLINK-4020,1 52703U 22053AZ  24101.96800575 -.00000503  00000-0 -13487-4 0  9994,2 52703  53.2221  26.3287 0001636  97.2424 262.8754 15.08827708104708,6917.918,95.438,540.915,538.651,0.0
52703.0,STARLINK-4020,PAYLOAD,2024-04-11 11:56:59,15.08848611,0.0001529,53.2207,23.9473,83.9009,276.2157,6.6564e-05,7.72e-06,0.0,0 STARLINK-4020,1 52703U 22053AZ  24102.49791089  .00000772  00000-0  66564-4 0  9992,2 52703  53.2207  23.9473 0001529  83.9009 276.2157 15.08848611105639,6917.854,95.437,540.777,538.661,0.0
52703.0,STARLINK-4020,PAYLOAD,2024-04-12 03:50:51,15.08837605,0.0001341,53.2204,20.9739,91.4035,268.7111,3.6292e-05,2.9e-06,0.0,0 STARLINK-4020,1 52703U 22053AZ  24103.16031978  .00000290  00000-0  36292-4 0  9991,2 52703  53.2204  20.9739 0001341  91.4035 268.7111 15.08837605105731,6917.888,95.438,540.68,538.825,0.0
52703.0,STARLINK-4020,PAYLOAD,2024-04-12 22:55:28,15.08840963,0.0001498,53.22,17.4045,91.6441,268.4723,0.00016472,2.335e-05,0.0,0 STARLINK-4020,1 52703U 22053AZ  24103.95519513  .00002335  00000-0  16472-3 0  9993,2 52703  53.2200  17.4045 0001498  91.6441 268.4723 15.08840963105001,6917.877,95.437,540.779,538.706,0.0
52703.0,STARLINK-4020,PAYLOAD,2024-04-13 00:30:51,15.088453,0.0001374,53.2199,17.1061,94.8728,265.2421,0.00011442,1.534e-05,0.0,0 STARLINK-4020,1 52703U 22053AZ  24104.02143393  .00001534  00000-0  11442-3 0  9993,2 52703  53.2199  17.1061 0001374  94.8728 265.2421 15.08845300105863,6917.864,95.437,540.68,538.779,0.0
52703.0,STARLINK-4020,PAYLOAD,2024-04-13 21:10:52,15.08839653,0.0001406,53.2198,13.2409,93.2181,266.8972,0.00012708,1.735e-05,0.0,0 STARLINK-4020,1 52703U 22053AZ  24104.88255680  .00001735  00000-0  12708-3 0  9999,2 52703  53.2198  13.2409 0001406  93.2181 266.8972 15.08839653105993,6917.881,95.438,540.719,538.774,0.0
52703.0,STARLINK-4020,PAYLOAD,2024-04-14 22:37:02,15.08843846,0.0001483,53.2199,8.482,115.5247,244.5898,5.2773e-05,5.52e-06,0.0,0 STARLINK-4020,1 52703U 22053AZ  24105.94239371  .00000552  00000-0  52773-4 0  9999,2 52703  53.2199   8.4820 0001483 115.5247 244.5898 15.08843846105307,6917.869,95.437,540.76,538.708,0.0
52703.0,STARLINK-4020,PAYLOAD,2024-04-15 03:23:12,15.08844135,0.0001433,53.2199,7.59,112.9832,247.1312,4.931e-05,4.97e-06,0.0,0 STARLINK-4020,1 52703U 22053AZ  24106.14111319  .00000497  00000-0  49310-4 0  9994,2 52703  53.2199   7.5900 0001433 112.9832 247.1312 15.08844135106181,6917.868,95.437,540.724,538.741,0.0
52703.0,STARLINK-4020,PAYLOAD,2024-04-15 20:52:29,15.08811764,0.0001069,53.2201,4.3189,77.6576,282.4536,-0.00016631,-2.931e-05,0.0,0 STARLINK-4020,1 52703U 22053AZ  24106.86978327 -.00002931  00000-0 -16631-3 0  9999,2 52703  53.2201   4.3189 0001069  77.6576 282.4536 15.08811764106290,6917.967,95.439,540.571,539.092,0.0
52703.0,STARLINK-4020,PAYLOAD,2024-04-16 00:03:14,15.08821495,0.0001099,53.2198,3.7265,104.0308,256.0806,-8.3148e-05,-1.61e-05,0.0,0 STARLINK-4020,1 52703U 22053AZ  24107.00225672 -.00001610  00000-0 -83148-4 0  9995,2 52703  53.2198   3.7265 0001099 104.0308 256.0806 15.08821495106316,6917.937,95.439,540.562,539.042,0.0
52703.0,STARLINK-4020,PAYLOAD,2024-04-16 09:35:33,15.08833592,0.0001119,53.2199,1.9413,83.964,276.1479,3.0126e-05,1.92e-06,0.0,0 STARLINK-4020,1 52703U 22053AZ  24107.39968944  .00000192  00000-0  30126-4 0  9993,2 52703  53.2199   1.9413 0001119  83.9640 276.1479 15.08833592106375,6917.9,95.438,540.539,538.991,0.0
52703.0,STARLINK-4020,PAYLOAD,2024-04-16 20:43:14,15.08846152,0.0001315,53.2187,359.859,65.5738,294.5391,0.0001937,2.797e-05,0.0,0 STARLINK-4020,1 52703U 22053AZ  24107.86335803  .00002797  00000-0  19370-3 0  9997,2 52703  53.2187 359.8590 0001315  65.5738 294.5391 15.08846152106446,6917.862,95.437,540.636,538.817,0.0
52703.0,STARLINK-4020,PAYLOAD,2024-04-16 22:18:36,15.08855481,0.0001167,53.2186,359.5649,80.874,279.2384,0.0001685,2.396e-05,0.0,0 STARLINK-4020,1 52703U 22053AZ  24107.92959207  .00002396  00000-0  16850-3 0  9999,2 52703  53.2186 359.5649 0001167  80.8740 279.2384 15.08855481105609,6917.833,95.437,540.505,538.891,0.0
52703.0,STARLINK-4020,PAYLOAD,2024-04-16 23:53:58,15.08870109,0.0001195,53.2184,359.2642,75.2446,284.8678,0.00038602,5.866e-05,0.0,0 STARLINK-4020,1 52703U 22053AZ  24107.99581614  .00005866  00000-0  38602-3 0  9993,2 52703  53.2184 359.2642 0001195  75.2446 284.8678 15.08870109106466,6917.788,95.436,540.48,538.827,0.0
52703.0,STARLINK-4020,PAYLOAD,2024-04-17 20:34:00,15.08838308,9.94e-05,53.2191,355.4027,97.0469,263.0637,0.00032218,4.843e-05,0.0,0 STARLINK-4020,1 52703U 22053AZ  24108.85695536  .00004843  00000-0  32218-3 0  9999,2 52703  53.2191 355.4027 0000994  97.0469 263.0637 15.08838308106595,6917.886,95.438,540.438,539.063,0.0
52703.0,STARLINK-4020,PAYLOAD,2024-04-18 01:20:11,15.08823328,0.0001198,53.2188,354.5105,103.1013,257.0113,0.00016915,2.404e-05,0.0,0 STARLINK-4020,1 52703U 22053AZ  24109.05568855  .00002404  00000-0  16915-3 0  9992,2 52703  53.2188 354.5105 0001198 103.1013 257.0113 15.08823328106621,6917.931,95.439,540.625,538.968,0.0
52703.0,STARLINK-4020,PAYLOAD,2024-04-18 22:00:12,15.08848446,0.0001249,53.2187,350.6451,98.5246,261.5888,-0.0002813,-4.763e-05,0.0,0 STARLINK-4020,1 52703U 22053AZ  24109.91680899 -.00004763  00000-0 -28130-3 0  9994,2 52703  53.2187 350.6451 0001249  98.5246 261.5888 15.08848446105900,6917.855,95.437,540.584,538.856,0.0
52703.0,STARLINK-4020,PAYLOAD,2024-04-19 01:10:58,15.08851326,0.0001255,53.219,350.0464,91.6022,268.5114,-0.00027069,-4.595e-05,0.0,0 STARLINK-4020,1 52703U 22053AZ  24110.04928621 -.00004595  00000-0 -27069-3 0  9991,2 52703  53.2190 350.0464 0001255  91.6022 268.5114 15.08851326106771,6917.846,95.437,540.579,538.843,0.0
52703.0,STARLINK-4020,PAYLOAD,2024-04-19 21:50:58,15.088354,0.0001758,53.2198,346.1819,71.8118,288.3065,0.00017316,2.469e-05,0.0,0 STARLINK-4020,1 52703U 22053AZ  24110.91040457  .00002469  00000-0  17316-3 0  9999,2 52703  53.2198 346.1819 0001758  71.8118 288.3065 15.08835400106054,6917.894,95.438,540.976,538.543,0.0
52703.0,STARLINK-4020,PAYLOAD,2024-04-19 23:26:20,15.0885517,0.0001428,53.2198,345.8826,90.7862,269.3294,0.00031631,4.752e-05,0.0,0 STARLINK-4020,1 52703U 22053AZ  24110.97662802  .00004752  00000-0  31631-3 0  9992,2 52703  53.2198 345.8826 0001428  90.7862 269.3294 15.08855170106912,6917.834,95.437,540.687,538.711,0.0
52703.0,STARLINK-4020,PAYLOAD,2024-04-20 20:06:22,15.08838423,0.0001476,53.2205,342.0161,92.3207,267.7955,0.0001125,1.503e-05,0.0,0 STARLINK-4020,1 52703U 22053AZ  24111.83776595  .00001503  00000-0  11250-3 0  9999,2 52703  53.2205 342.0161 0001476  92.3207 267.7955 15.08838423107049,6917.885,95.438,540.771,538.729,0.0
